{"type": "FeatureCollection", "features": [ {"type": "Feature", "properties": {"norad_id": 66486, "name": "STARLINK-34844", "group": "last-30-days", "lat": 35.511110247246904, "lon": -43.99451731965356, "alt_km": 339.9906576842195, "timestamp": "2025-12-02T10:50:46.052431+00:00", "meta": {"OBJECT_NAME": "STARLINK-34844", "OBJECT_ID": "2025-263B", "EPOCH": "2025-12-02T04:00:03.998880", "MEAN_MOTION": 15.75024587, "ECCENTRICITY": 0.000193, "INCLINATION": 42.999, "RA_OF_ASC_NODE": 187.7156, "ARG_OF_PERICENTER": 268.3894, "MEAN_ANOMALY": 34.0038, "EPHEMERIS_TYPE": 0, "CLASSIFICATION_TYPE": "U", "NORAD_CAT_ID": 66486, "ELEMENT_SET_NO": 999, "REV_AT_EPOCH": 388, "BSTAR": 1.8528e-05, "MEAN_MOTION_DOT": 2.367e-05, "MEAN_MOTION_DDOT": 0}, "tle": {"line1": "1 66486U 25263B   25336.16671295  .00002367  00000+0  18528-4 0  9999", "line2": "2 66486  42.9990 187.7156 0001930 268.3894  34.0038 15.75024587  3884"}}, "geometry": {"type": "Point", "coordinates": [-43.99451731965356, 35.511110247246904]}}, {"type": "Feature", "properties": {"norad_id": 66487, "name": "STARLINK-34733", "group": "last-30-days", "lat": 34.67036323272548, "lon": -41.94714120129669, "alt_km": 339.97882311971625, "timestamp": "2025-12-02T10:50:46.052441+00:00", "meta": {"OBJECT_NAME": "STARLINK-34733", "OBJECT_ID": "2025-263C", "EPOCH": "2025-12-01T14:00:01.999872", "MEAN_MOTION": 15.75048056, "ECCENTRICITY": 0.00016418, "INCLINATION": 42.9993, "RA_OF_ASC_NODE": 191.2499, "ARG_OF_PERICENTER": 263.4131, "MEAN_ANOMALY": 329.1096, "EPHEMERIS_TYPE": 0, "CLASSIFICATION_TYPE": "U", "NORAD_CAT_ID": 66487, "ELEMENT_SET_NO": 999, "REV_AT_EPOCH": 384, "BSTAR": -0.00013820778, "MEAN_MOTION_DOT": -0.00021661, "MEAN_MOTION_DDOT": 0}, "tle": {"line1": "1 66487U 25263C   25335.58335648 -.00021661  00000+0 -13821-3 0  9994", "line2": "2 66487  42.9993 191.2499 0001641 263.4131 329.1096 15.75048056  3842"}}, "geometry": {"type": "Point", "coordinates": [-41.94714120129669, 34.67036323272548]}}, {"type": "Feature", "properties": {"norad_id": 66488, "name": "STARLINK-35515", "group": "last-30-days", "lat": 33.75511561930513, "lon": -39.84981169127254, "alt_km": 340.21814050165995, "timestamp": "2025-12-02T10:50:46.052451+00:00", "meta": {"OBJECT_NAME": "STARLINK-35515", "OBJECT_ID": "2025-263D", "EPOCH": "2025-12-02T04:00:03.998880", "MEAN_MOTION": 15.7506335, "ECCENTRICITY": 0.0001722, "INCLINATION": 42.9992, "RA_OF_ASC_NODE": 187.7061, "ARG_OF_PERICENTER": 279.0335, "MEAN_ANOMALY": 27.1732, "EPHEMERIS_TYPE": 0, "CLASSIFICATION_TYPE": "U", "NORAD_CAT_ID": 66488, "ELEMENT_SET_NO": 999, "REV_AT_EPOCH": 393, "BSTAR": -0.0004062, "MEAN_MOTION_DOT": -0.00062481, "MEAN_MOTION_DDOT": 0}, "tle": {"line1": "1 66488U 25263D   25336.16671295 -.00062481  00000+0 -40620-3 0  9993", "line2": "2 66488  42.9992 187.7061 0001722 279.0335  27.1732 15.75063350  3932"}}, "geometry": {"type": "Point", "coordinates": [-39.84981169127254, 33.75511561930513]}}, {"type": "Feature", "properties": {"norad_id": 66489, "name": "STARLINK-35696", "group": "last-30-days", "lat": 32.8309795833134, "lon": -37.853276567711596, "alt_km": 340.23419806210313, "timestamp": "2025-12-02T10:50:46.052461+00:00", "meta": {"OBJECT_NAME": "STARLINK-35696", "OBJECT_ID": "2025-263E", "EPOCH": "2025-12-02T04:00:03.998880", "MEAN_MOTION": 15.75044964, "ECCENTRICITY": 0.0001846, "INCLINATION": 42.9991, "RA_OF_ASC_NODE": 187.7013, "ARG_OF_PERICENTER": 264.9522, "MEAN_ANOMALY": 43.1747, "EPHEMERIS_TYPE": 0, "CLASSIFICATION_TYPE": "U", "NORAD_CAT_ID": 66489, "ELEMENT_SET_NO": 999, "REV_AT_EPOCH": 393, "BSTAR": -0.00011447, "MEAN_MOTION_DOT": -0.00018029, "MEAN_MOTION_DDOT": 0}, "tle": {"line1": "1 66489U 25263E   25336.16671295 -.00018029  00000+0 -11447-3 0  9998", "line2": "2 66489  42.9991 187.7013 0001846 264.9522  43.1747 15.75044964  3931"}}, "geometry": {"type": "Point", "coordinates": [-37.853276567711596, 32.8309795833134]}}, {"type": "Feature", "properties": {"norad_id": 66490, "name": "STARLINK-35693", "group": "last-30-days", "lat": 31.868919649519224, "lon": -35.885332186792546, "alt_km": 340.4918488918338, "timestamp": "2025-12-02T10:50:46.052473+00:00", "meta": {"OBJECT_NAME": "STARLINK-35693", "OBJECT_ID": "2025-263F", "EPOCH": "2025-12-02T04:00:03.998880", "MEAN_MOTION": 15.75071538, "ECCENTRICITY": 0.0001733, "INCLINATION": 42.9991, "RA_OF_ASC_NODE": 187.6962, "ARG_OF_PERICENTER": 279.4986, "MEAN_ANOMALY": 30.5345, "EPHEMERIS_TYPE": 0, "CLASSIFICATION_TYPE": "U", "NORAD_CAT_ID": 66490, "ELEMENT_SET_NO": 999, "REV_AT_EPOCH": 393, "BSTAR": -0.00046535, "MEAN_MOTION_DOT": -0.0007146, "MEAN_MOTION_DDOT": 0}, "tle": {"line1": "1 66490U 25263F   25336.16671295 -.00071460  00000+0 -46535-3 0  9994", "line2": "2 66490  42.9991 187.6962 0001733 279.4986  30.5345 15.75071538  3936"}}, "geometry": {"type": "Point", "coordinates": [-35.885332186792546, 31.868919649519224]}}, {"type": "Feature", "properties": {"norad_id": 66491, "name": "STARLINK-35663", "group": "last-30-days", "lat": 29.870046034622906, "lon": -32.09537898009397, "alt_km": 340.9219520292281, "timestamp": "2025-12-02T10:50:46.052484+00:00", "meta": {"OBJECT_NAME": "STARLINK-35663", "OBJECT_ID": "2025-263G", "EPOCH": "2025-12-02T04:00:03.998880", "MEAN_MOTION": 15.75038081, "ECCENTRICITY": 0.0002182, "INCLINATION": 42.999, "RA_OF_ASC_NODE": 187.6866, "ARG_OF_PERICENTER": 274.8281, "MEAN_ANOMALY": 39.041, "EPHEMERIS_TYPE": 0, "CLASSIFICATION_TYPE": "U", "NORAD_CAT_ID": 66491, "ELEMENT_SET_NO": 999, "REV_AT_EPOCH": 393, "BSTAR": 7.6538e-05, "MEAN_MOTION_DOT": 0.00011295, "MEAN_MOTION_DDOT": 0}, "tle": {"line1": "1 66491U 25263G   25336.16671295  .00011295  00000+0  76538-4 0  9990", "line2": "2 66491  42.9990 187.6866 0002182 274.8281  39.0410 15.75038081  3938"}}, "geometry": {"type": "Point", "coordinates": [-32.09537898009397, 29.870046034622906]}}, {"type": "Feature", "properties": {"norad_id": 66492, "name": "STARLINK-35673", "group": "last-30-days", "lat": 28.82577786322179, "lon": -30.244199116132297, "alt_km": 340.9377279200735, "timestamp": "2025-12-02T10:50:46.052494+00:00", "meta": {"OBJECT_NAME": "STARLINK-35673", "OBJECT_ID": "2025-263H", "EPOCH": "2025-12-02T04:00:03.998880", "MEAN_MOTION": 15.75062666, "ECCENTRICITY": 0.0001934, "INCLINATION": 43.0029, "RA_OF_ASC_NODE": 187.6818, "ARG_OF_PERICENTER": 272.7276, "MEAN_ANOMALY": 43.0579, "EPHEMERIS_TYPE": 0, "CLASSIFICATION_TYPE": "U", "NORAD_CAT_ID": 66492, "ELEMENT_SET_NO": 999, "REV_AT_EPOCH": 393, "BSTAR": -0.00033359, "MEAN_MOTION_DOT": -0.00051463, "MEAN_MOTION_DDOT": 0}, "tle": {"line1": "1 66492U 25263H   25336.16671295 -.00051463  00000+0 -33359-3 0  9997", "line2": "2 66492  43.0029 187.6818 0001934 272.7276  43.0579 15.75062666  3933"}}, "geometry": {"type": "Point", "coordinates": [-30.244199116132297, 28.82577786322179]}}, {"type": "Feature", "properties": {"norad_id": 66493, "name": "STARLINK-35597", "group": "last-30-days", "lat": 27.74453185268174, "lon": -28.421925501601212, "alt_km": 341.40434495741283, "timestamp": "2025-12-02T10:50:46.052504+00:00", "meta": {"OBJECT_NAME": "STARLINK-35597", "OBJECT_ID": "2025-263J", "EPOCH": "2025-12-02T04:00:03.998880", "MEAN_MOTION": 15.74993257, "ECCENTRICITY": 0.0002067, "INCLINATION": 42.9989, "RA_OF_ASC_NODE": 187.6766, "ARG_OF_PERICENTER": 285.6579, "MEAN_ANOMALY": 32.1108, "EPHEMERIS_TYPE": 0, "CLASSIFICATION_TYPE": "U", "NORAD_CAT_ID": 66493, "ELEMENT_SET_NO": 999, "REV_AT_EPOCH": 393, "BSTAR": 0.00015124, "MEAN_MOTION_DOT": 0.00022772, "MEAN_MOTION_DDOT": 0}, "tle": {"line1": "1 66493U 25263J   25336.16671295  .00022772  00000+0  15124-3 0  9997", "line2": "2 66493  42.9989 187.6766 0002067 285.6579  32.1108 15.74993257  3931"}}, "geometry": {"type": "Point", "coordinates": [-28.421925501601212, 27.74453185268174]}}, {"type": "Feature", "properties": {"norad_id": 66494, "name": "STARLINK-35689", "group": "last-30-days", "lat": 30.8830778671048, "lon": -33.97026790814968, "alt_km": 340.5664952443358, "timestamp": "2025-12-02T10:50:46.052516+00:00", "meta": {"OBJECT_NAME": "STARLINK-35689", "OBJECT_ID": "2025-263K", "EPOCH": "2025-12-02T04:00:03.998880", "MEAN_MOTION": 15.75059412, "ECCENTRICITY": 0.0001925, "INCLINATION": 42.9989, "RA_OF_ASC_NODE": 187.6914, "ARG_OF_PERICENTER": 266.9372, "MEAN_ANOMALY": 45.0165, "EPHEMERIS_TYPE": 0, "CLASSIFICATION_TYPE": "U", "NORAD_CAT_ID": 66494, "ELEMENT_SET_NO": 999, "REV_AT_EPOCH": 393, "BSTAR": -0.00028803, "MEAN_MOTION_DOT": -0.00044531, "MEAN_MOTION_DDOT": 0}, "tle": {"line1": "1 66494U 25263K   25336.16671295 -.00044531  00000+0 -28803-3 0  9995", "line2": "2 66494  42.9989 187.6914 0001925 266.9372  45.0165 15.75059412  3935"}}, "geometry": {"type": "Point", "coordinates": [-33.97026790814968, 30.8830778671048]}}, {"type": "Feature", "properties": {"norad_id": 66495, "name": "STARLINK-35832", "group": "last-30-days", "lat": 26.666282898247392, "lon": -26.672877443403888, "alt_km": 340.9197217910669, "timestamp": "2025-12-02T10:50:46.052526+00:00", "meta": {"OBJECT_NAME": "STARLINK-35832", "OBJECT_ID": "2025-263L", "EPOCH": "2025-12-02T04:00:03.998880", "MEAN_MOTION": 15.75071145, "ECCENTRICITY": 0.0001709, "INCLINATION": 42.9987, "RA_OF_ASC_NODE": 187.6717, "ARG_OF_PERICENTER": 259.9389, "MEAN_ANOMALY": 59.6744, "EPHEMERIS_TYPE": 0, "CLASSIFICATION_TYPE": "U", "NORAD_CAT_ID": 66495, "ELEMENT_SET_NO": 999, "REV_AT_EPOCH": 393, "BSTAR": -0.00041763, "MEAN_MOTION_DOT": -0.00064233, "MEAN_MOTION_DDOT": 0}, "tle": {"line1": "1 66495U 25263L   25336.16671295 -.00064233  00000+0 -41763-3 0  9997", "line2": "2 66495  42.9987 187.6717 0001709 259.9389  59.6744 15.75071145  3936"}}, "geometry": {"type": "Point", "coordinates": [-26.672877443403888, 26.666282898247392]}}]}